{"type": "FeatureCollection", "features": [ {"type": "Feature", "properties": {"norad_id": 66677, "name": "TRANSPORTER-15 M", "group": "last-30-days", "lat": -61.68105196050631, "lon": -126.0355288831884, "alt_km": 501.58443850789445, "timestamp": "2025-12-22T09:53:36.143446+00:00", "meta": {"OBJECT_NAME": "TRANSPORTER-15 M", "OBJECT_ID": "2025-276M", "EPOCH": "2025-12-22T04:05:27.832992", "MEAN_MOTION": 15.20048419, "ECCENTRICITY": 0.0013757, "INCLINATION": 97.4387, "RA_OF_ASC_NODE": 67.7578, "ARG_OF_PERICENTER": 222.2681, "MEAN_ANOMALY": 137.7495, "EPHEMERIS_TYPE": 0, "CLASSIFICATION_TYPE": "U", "NORAD_CAT_ID": 66677, "ELEMENT_SET_NO": 999, "REV_AT_EPOCH": 355, "BSTAR": 0.074519, "MEAN_MOTION_DOT": 0.01760874, "MEAN_MOTION_DDOT": 0}, "tle": {"line1": "1 66677U 25276M   25356.17046103  .01760874  00000+0  74519-1 0  9996", "line2": "2 66677  97.4387  67.7578 0013757 222.2681 137.7495 15.20048419  3551"}}, "geometry": {"type": "Point", "coordinates": [-126.0355288831884, -61.68105196050631]}}, {"type": "Feature", "properties": {"norad_id": 66678, "name": "TRANSPORTER-15 N", "group": "last-30-days", "lat": -18.748124109808447, "lon": -114.55272394609446, "alt_km": 518.5020603132334, "timestamp": "2025-12-22T09:53:36.143458+00:00", "meta": {"OBJECT_NAME": "TRANSPORTER-15 N", "OBJECT_ID": "2025-276N", "EPOCH": "2025-12-22T04:16:10.204032", "MEAN_MOTION": 15.16844106, "ECCENTRICITY": 0.0004893, "INCLINATION": 97.4426, "RA_OF_ASC_NODE": 67.7603, "ARG_OF_PERICENTER": 252.6352, "MEAN_ANOMALY": 107.4346, "EPHEMERIS_TYPE": 0, "CLASSIFICATION_TYPE": "U", "NORAD_CAT_ID": 66678, "ELEMENT_SET_NO": 999, "REV_AT_EPOCH": 355, "BSTAR": 0.00049474, "MEAN_MOTION_DOT": 9.674e-05, "MEAN_MOTION_DDOT": 0}, "tle": {"line1": "1 66678U 25276N   25356.17789588  .00009674  00000+0  49474-3 0  9995", "line2": "2 66678  97.4426  67.7603 0004893 252.6352 107.4346 15.16844106  3559"}}, "geometry": {"type": "Point", "coordinates": [-114.55272394609446, -18.748124109808447]}}, {"type": "Feature", "properties": {"norad_id": 66679, "name": "TRANSPORTER-15 P", "group": "last-30-days", "lat": -18.126891361867393, "lon": -114.47953333607677, "alt_km": 514.7006923214976, "timestamp": "2025-12-22T09:53:36.143468+00:00", "meta": {"OBJECT_NAME": "TRANSPORTER-15 P", "OBJECT_ID": "2025-276P", "EPOCH": "2025-12-21T10:52:32.598048", "MEAN_MOTION": 15.17590497, "ECCENTRICITY": 0.00037983, "INCLINATION": 97.4397, "RA_OF_ASC_NODE": 67.0293, "ARG_OF_PERICENTER": 283.1797, "MEAN_ANOMALY": 76.9013, "EPHEMERIS_TYPE": 0, "CLASSIFICATION_TYPE": "U", "NORAD_CAT_ID": 66679, "ELEMENT_SET_NO": 999, "REV_AT_EPOCH": 344, "BSTAR": 0.026256086, "MEAN_MOTION_DOT": 0.0056315, "MEAN_MOTION_DDOT": 0}, "tle": {"line1": "1 66679U 25276P   25355.45315507  .00563150  00000+0  26256-1 0  9997", "line2": "2 66679  97.4397  67.0293 0003798 283.1797  76.9013 15.17590497  3441"}}, "geometry": {"type": "Point", "coordinates": [-114.47953333607677, -18.126891361867393]}}, {"type": "Feature", "properties": {"norad_id": 66680, "name": "TRANSPORTER-15 Q", "group": "last-30-days", "lat": -19.816637643659636, "lon": -114.7122756173394, "alt_km": 518.4455353774838, "timestamp": "2025-12-22T09:53:36.143478+00:00", "meta": {"OBJECT_NAME": "TRANSPORTER-15 Q", "OBJECT_ID": "2025-276Q", "EPOCH": "2025-12-22T04:15:52.568928", "MEAN_MOTION": 15.16821154, "ECCENTRICITY": 0.0005559, "INCLINATION": 97.4414, "RA_OF_ASC_NODE": 67.7571, "ARG_OF_PERICENTER": 254.6682, "MEAN_ANOMALY": 105.3937, "EPHEMERIS_TYPE": 0, "CLASSIFICATION_TYPE": "U", "NORAD_CAT_ID": 66680, "ELEMENT_SET_NO": 999, "REV_AT_EPOCH": 355, "BSTAR": 0.00033551, "MEAN_MOTION_DOT": 6.533e-05, "MEAN_MOTION_DDOT": 0}, "tle": {"line1": "1 66680U 25276Q   25356.17769177  .00006533  00000+0  33551-3 0  9990", "line2": "2 66680  97.4414  67.7571 0005559 254.6682 105.3937 15.16821154  3552"}}, "geometry": {"type": "Point", "coordinates": [-114.7122756173394, -19.816637643659636]}}, {"type": "Feature", "properties": {"norad_id": 66681, "name": "TRANSPORTER-15 R", "group": "last-30-days", "lat": -46.040624975811504, "lon": -119.80533443741952, "alt_km": 518.3100500434548, "timestamp": "2025-12-22T09:53:36.143487+00:00", "meta": {"OBJECT_NAME": "TRANSPORTER-15 R", "OBJECT_ID": "2025-276R", "EPOCH": "2025-12-22T02:34:02.353152", "MEAN_MOTION": 15.17406302, "ECCENTRICITY": 0.0004986, "INCLINATION": 97.4337, "RA_OF_ASC_NODE": 67.6767, "ARG_OF_PERICENTER": 278.6077, "MEAN_ANOMALY": 81.4592, "EPHEMERIS_TYPE": 0, "CLASSIFICATION_TYPE": "U", "NORAD_CAT_ID": 66681, "ELEMENT_SET_NO": 999, "REV_AT_EPOCH": 354, "BSTAR": 0.00086922, "MEAN_MOTION_DOT": 0.00017341, "MEAN_MOTION_DDOT": 0}, "tle": {"line1": "1 66681U 25276R   25356.10697168  .00017341  00000+0  86922-3 0  9993", "line2": "2 66681  97.4337  67.6767 0004986 278.6077  81.4592 15.17406302  3545"}}, "geometry": {"type": "Point", "coordinates": [-119.80533443741952, -46.040624975811504]}}, {"type": "Feature", "properties": {"norad_id": 66682, "name": "TRANSPORTER-15 S", "group": "last-30-days", "lat": -34.33947485789017, "lon": -117.11976870559897, "alt_km": 517.8454724145922, "timestamp": "2025-12-22T09:53:36.143499+00:00", "meta": {"OBJECT_NAME": "TRANSPORTER-15 S", "OBJECT_ID": "2025-276S", "EPOCH": "2025-12-22T04:12:04.605984", "MEAN_MOTION": 15.17120268, "ECCENTRICITY": 0.0004835, "INCLINATION": 97.4456, "RA_OF_ASC_NODE": 67.773, "ARG_OF_PERICENTER": 242.1253, "MEAN_ANOMALY": 117.9491, "EPHEMERIS_TYPE": 0, "CLASSIFICATION_TYPE": "U", "NORAD_CAT_ID": 66682, "ELEMENT_SET_NO": 999, "REV_AT_EPOCH": 355, "BSTAR": 0.00061359, "MEAN_MOTION_DOT": 0.00012113, "MEAN_MOTION_DDOT": 0}, "tle": {"line1": "1 66682U 25276S   25356.17505331  .00012113  00000+0  61359-3 0  9990", "line2": "2 66682  97.4456  67.7730 0004835 242.1253 117.9491 15.17120268  3552"}}, "geometry": {"type": "Point", "coordinates": [-117.11976870559897, -34.33947485789017]}}, {"type": "Feature", "properties": {"norad_id": 66683, "name": "TRANSPORTER-15 T", "group": "last-30-days", "lat": -30.069709812743653, "lon": -116.3395248732311, "alt_km": 518.2302516553436, "timestamp": "2025-12-22T09:53:36.143509+00:00", "meta": {"OBJECT_NAME": "TRANSPORTER-15 T", "OBJECT_ID": "2025-276T", "EPOCH": "2025-12-22T04:13:11.470080", "MEAN_MOTION": 15.17007739, "ECCENTRICITY": 0.0004703, "INCLINATION": 97.4453, "RA_OF_ASC_NODE": 67.7705, "ARG_OF_PERICENTER": 245.4202, "MEAN_ANOMALY": 114.6541, "EPHEMERIS_TYPE": 0, "CLASSIFICATION_TYPE": "U", "NORAD_CAT_ID": 66683, "ELEMENT_SET_NO": 999, "REV_AT_EPOCH": 355, "BSTAR": 0.00056314, "MEAN_MOTION_DOT": 0.00011074, "MEAN_MOTION_DDOT": 0}, "tle": {"line1": "1 66683U 25276T   25356.17582720  .00011074  00000+0  56314-3 0  9998", "line2": "2 66683  97.4453  67.7705 0004703 245.4202 114.6541 15.17007739  3553"}}, "geometry": {"type": "Point", "coordinates": [-116.3395248732311, -30.069709812743653]}}, {"type": "Feature", "properties": {"norad_id": 66684, "name": "TRANSPORTER-15 U", "group": "last-30-days", "lat": -46.506234952320405, "lon": -119.90816677246646, "alt_km": 517.8432409353991, "timestamp": "2025-12-22T09:53:36.143519+00:00", "meta": {"OBJECT_NAME": "TRANSPORTER-15 U", "OBJECT_ID": "2025-276U", "EPOCH": "2025-12-22T04:08:51.445824", "MEAN_MOTION": 15.17294606, "ECCENTRICITY": 0.0004509, "INCLINATION": 97.4478, "RA_OF_ASC_NODE": 67.7818, "ARG_OF_PERICENTER": 243.3198, "MEAN_ANOMALY": 116.7575, "EPHEMERIS_TYPE": 0, "CLASSIFICATION_TYPE": "U", "NORAD_CAT_ID": 66684, "ELEMENT_SET_NO": 999, "REV_AT_EPOCH": 355, "BSTAR": 0.0006391, "MEAN_MOTION_DOT": 0.00012683, "MEAN_MOTION_DDOT": 0}, "tle": {"line1": "1 66684U 25276U   25356.17281766  .00012683  00000+0  63910-3 0  9992", "line2": "2 66684  97.4478  67.7818 0004509 243.3198 116.7575 15.17294606  3552"}}, "geometry": {"type": "Point", "coordinates": [-119.90816677246646, -46.506234952320405]}}, {"type": "Feature", "properties": {"norad_id": 66685, "name": "TRANSPORTER-15 V", "group": "last-30-days", "lat": -53.21875980984223, "lon": -122.06672919925514, "alt_km": 518.0694948324654, "timestamp": "2025-12-22T09:53:36.143528+00:00", "meta": {"OBJECT_NAME": "TRANSPORTER-15 V", "OBJECT_ID": "2025-276V", "EPOCH": "2025-12-22T02:32:07.346112", "MEAN_MOTION": 15.17441112, "ECCENTRICITY": 0.0004024, "INCLINATION": 97.4424, "RA_OF_ASC_NODE": 67.7024, "ARG_OF_PERICENTER": 260.0877, "MEAN_ANOMALY": 99.9903, "EPHEMERIS_TYPE": 0, "CLASSIFICATION_TYPE": "U", "NORAD_CAT_ID": 66685, "ELEMENT_SET_NO": 999, "REV_AT_EPOCH": 354, "BSTAR": 0.00083144, "MEAN_MOTION_DOT": 0.00016598, "MEAN_MOTION_DDOT": 0}, "tle": {"line1": "1 66685U 25276V   25356.10564058  .00016598  00000+0  83144-3 0  9994", "line2": "2 66685  97.4424  67.7024 0004024 260.0877  99.9903 15.17441112  3547"}}, "geometry": {"type": "Point", "coordinates": [-122.06672919925514, -53.21875980984223]}}, {"type": "Feature", "properties": {"norad_id": 66686, "name": "TRANSPORTER-15 W", "group": "last-30-days", "lat": -34.19045699619001, "lon": -117.09093113218297, "alt_km": 520.486704790249, "timestamp": "2025-12-22T09:53:36.143542+00:00", "meta": {"OBJECT_NAME": "TRANSPORTER-15 W", "OBJECT_ID": "2025-276W", "EPOCH": "2025-12-22T04:12:03.011904", "MEAN_MOTION": 15.16794299, "ECCENTRICITY": 0.0002228, "INCLINATION": 97.4456, "RA_OF_ASC_NODE": 67.7733, "ARG_OF_PERICENTER": 221.684, "MEAN_ANOMALY": 138.4224, "EPHEMERIS_TYPE": 0, "CLASSIFICATION_TYPE": "U", "NORAD_CAT_ID": 66686, "ELEMENT_SET_NO": 999, "REV_AT_EPOCH": 355, "BSTAR": -0.006484, "MEAN_MOTION_DOT": -0.00125182, "MEAN_MOTION_DDOT": 0}, "tle": {"line1": "1 66686U 25276W   25356.17503486 -.00125182  00000+0 -64840-2 0  9993", "line2": "2 66686  97.4456  67.7733 0002228 221.6840 138.4224 15.16794299  3559"}}, "geometry": {"type": "Point", "coordinates": [-117.09093113218297, -34.19045699619001]}}]}